[{"OBJECT_NAME":"INTELSAT 23 (IS-23)","OBJECT_ID":"2012-057A","EPOCH":"2026-03-05T19:24:16.927200","MEAN_MOTION":1.00270074,"ECCENTRICITY":0.0001199,"INCLINATION":0.0501,"RA_OF_ASC_NODE":262.3311,"ARG_OF_PERICENTER":90.5526,"MEAN_ANOMALY":48.7155,"EPHEMERIS_TYPE":0,"CLASSIFICATION_TYPE":"U","NORAD_CAT_ID":38867,"ELEMENT_SET_NO":999,"REV_AT_EPOCH":4891,"BSTAR":0,"MEAN_MOTION_DOT":-2.91e-6,"MEAN_MOTION_DDOT":0},{"OBJECT_NAME":"FM-6","OBJECT_ID":"2013-058A","EPOCH":"2026-03-05T15:09:27.497664","MEAN_MOTION":1.00276991,"ECCENTRICITY":0.0002875,"INCLINATION":0.024,"RA_OF_ASC_NODE":127.8287,"ARG_OF_PERICENTER":59.2462,"MEAN_ANOMALY":87.4741,"EPHEMERIS_TYPE":0,"CLASSIFICATION_TYPE":"U","NORAD_CAT_ID":39360,"ELEMENT_SET_NO":999,"REV_AT_EPOCH":4503,"BSTAR":0,"MEAN_MOTION_DOT":-2.5e-7,"MEAN_MOTION_DDOT":0},{"OBJECT_NAME":"INTELSAT 30 (IS-30)","OBJECT_ID":"2014-062A","EPOCH":"2026-03-05T13:32:44.272320","MEAN_MOTION":1.00275127,"ECCENTRICITY":0.0001495,"INCLINATION":0.0181,"RA_OF_ASC_NODE":82.834,"ARG_OF_PERICENTER":21.4386,"MEAN_ANOMALY":167.1592,"EPHEMERIS_TYPE":0,"CLASSIFICATION_TYPE":"U","NORAD_CAT_ID":40271,"ELEMENT_SET_NO":999,"REV_AT_EPOCH":575,"BSTAR":0,"MEAN_MOTION_DOT":-1.59e-6,"MEAN_MOTION_DDOT":0},{"OBJECT_NAME":"DIRECTV 14","OBJECT_ID":"2014-078B","EPOCH":"2026-03-05T15:14:04.553952","MEAN_MOTION":1.00271102,"ECCENTRICITY":5.95e-5,"INCLINATION":0.0223,"RA_OF_ASC_NODE":140.6418,"ARG_OF_PERICENTER":348.2371,"MEAN_ANOMALY":163.7954,"EPHEMERIS_TYPE":0,"CLASSIFICATION_TYPE":"U","NORAD_CAT_ID":40333,"ELEMENT_SET_NO":999,"REV_AT_EPOCH":4100,"BSTAR":0,"MEAN_MOTION_DOT":0,"MEAN_MOTION_DDOT":0},{"OBJECT_NAME":"DIRECTV 15","OBJECT_ID":"2015-026A","EPOCH":"2026-03-05T15:13:12.137664","MEAN_MOTION":1.00270077,"ECCENTRICITY":4.7e-5,"INCLINATION":0.0224,"RA_OF_ASC_NODE":103.7211,"ARG_OF_PERICENTER":108.878,"MEAN_ANOMALY":76.1752,"EPHEMERIS_TYPE":0,"CLASSIFICATION_TYPE":"U","NORAD_CAT_ID":40663,"ELEMENT_SET_NO":999,"REV_AT_EPOCH":3942,"BSTAR":0,"MEAN_MOTION_DOT":-1.09e-6,"MEAN_MOTION_DDOT":0},{"OBJECT_NAME":"SKY MEXICO-1","OBJECT_ID":"2015-026B","EPOCH":"2026-03-05T10:11:56.023872","MEAN_MOTION":1.00269501,"ECCENTRICITY":0.000225,"INCLINATION":0.02,"RA_OF_ASC_NODE":125.8533,"ARG_OF_PERICENTER":238.8701,"MEAN_ANOMALY":232.6041,"EPHEMERIS_TYPE":0,"CLASSIFICATION_TYPE":"U","NORAD_CAT_ID":40664,"ELEMENT_SET_NO":999,"REV_AT_EPOCH":3941,"BSTAR":0,"MEAN_MOTION_DOT":-2.42e-6,"MEAN_MOTION_DDOT":0},{"OBJECT_NAME":"INTELSAT 34 (IS-34)","OBJECT_ID":"2015-039A","EPOCH":"2026-03-05T19:34:46.809120","MEAN_MOTION":1.0026756,"ECCENTRICITY":5.14e-5,"INCLINATION":0.0155,"RA_OF_ASC_NODE":178.2365,"ARG_OF_PERICENTER":270.4265,"MEAN_ANOMALY":313.1021,"EPHEMERIS_TYPE":0,"CLASSIFICATION_TYPE":"U","NORAD_CAT_ID":40874,"ELEMENT_SET_NO":999,"REV_AT_EPOCH":3858,"BSTAR":0,"MEAN_MOTION_DOT":0,"MEAN_MOTION_DDOT":0},{"OBJECT_NAME":"INTELSAT 31 (IS-31)","OBJECT_ID":"2016-035A","EPOCH":"2026-03-05T13:32:44.272320","MEAN_MOTION":1.00271059,"ECCENTRICITY":0.0001662,"INCLINATION":0.0348,"RA_OF_ASC_NODE":245.7007,"ARG_OF_PERICENTER":349.8607,"MEAN_ANOMALY":35.8608,"EPHEMERIS_TYPE":0,"CLASSIFICATION_TYPE":"U","NORAD_CAT_ID":41581,"ELEMENT_SET_NO":999,"REV_AT_EPOCH":3564,"BSTAR":0,"MEAN_MOTION_DOT":-1.58e-6,"MEAN_MOTION_DDOT":0},{"OBJECT_NAME":"INTELSAT 36 (IS-36)","OBJECT_ID":"2016-053A","EPOCH":"2026-03-05T13:22:09.737760","MEAN_MOTION":1.00269299,"ECCENTRICITY":0.0001513,"INCLINATION":0.02,"RA_OF_ASC_NODE":99.8975,"ARG_OF_PERICENTER":233.3854,"MEAN_ANOMALY":99.0273,"EPHEMERIS_TYPE":0,"CLASSIFICATION_TYPE":"U","NORAD_CAT_ID":41747,"ELEMENT_SET_NO":999,"REV_AT_EPOCH":3491,"BSTAR":0,"MEAN_MOTION_DOT":-3.1e-7,"MEAN_MOTION_DDOT":0},{"OBJECT_NAME":"INTELSAT 32E (IS-32E)","OBJECT_ID":"2017-007B","EPOCH":"2026-03-05T12:04:52.694688","MEAN_MOTION":1.00275199,"ECCENTRICITY":3.02e-5,"INCLINATION":0.011,"RA_OF_ASC_NODE":118.1682,"ARG_OF_PERICENTER":237.331,"MEAN_ANOMALY":305.7579,"EPHEMERIS_TYPE":0,"CLASSIFICATION_TYPE":"U","NORAD_CAT_ID":41945,"ELEMENT_SET_NO":999,"REV_AT_EPOCH":3318,"BSTAR":0,"MEAN_MOTION_DOT":-2.76e-6,"MEAN_MOTION_DDOT":0},{"OBJECT_NAME":"INTELSAT 35E (IS-35E)","OBJECT_ID":"2017-041A","EPOCH":"2026-03-05T04:14:38.535360","MEAN_MOTION":1.0027089,"ECCENTRICITY":0.0002225,"INCLINATION":0.0257,"RA_OF_ASC_NODE":241.7413,"ARG_OF_PERICENTER":103.6087,"MEAN_ANOMALY":206.6952,"EPHEMERIS_TYPE":0,"CLASSIFICATION_TYPE":"U","NORAD_CAT_ID":42818,"ELEMENT_SET_NO":999,"REV_AT_EPOCH":3177,"BSTAR":0,"MEAN_MOTION_DOT":-2.47e-6,"MEAN_MOTION_DDOT":0},{"OBJECT_NAME":"INTELSAT 37E (IS-37E)","OBJECT_ID":"2017-059A","EPOCH":"2026-03-05T15:37:24.816288","MEAN_MOTION":1.00271717,"ECCENTRICITY":0.0002137,"INCLINATION":0.019,"RA_OF_ASC_NODE":145.8008,"ARG_OF_PERICENTER":202.1243,"MEAN_ANOMALY":31.7949,"EPHEMERIS_TYPE":0,"CLASSIFICATION_TYPE":"U","NORAD_CAT_ID":42950,"ELEMENT_SET_NO":999,"REV_AT_EPOCH":3102,"BSTAR":0,"MEAN_MOTION_DOT":-1.48e-6,"MEAN_MOTION_DDOT":0},{"OBJECT_NAME":"AZERSPACE 2 (IS-38)","OBJECT_ID":"2018-074A","EPOCH":"2026-03-05T07:35:38.770944","MEAN_MOTION":1.00271143,"ECCENTRICITY":0.0001446,"INCLINATION":0.0249,"RA_OF_ASC_NODE":144.2303,"ARG_OF_PERICENTER":216.1159,"MEAN_ANOMALY":321.7363,"EPHEMERIS_TYPE":0,"CLASSIFICATION_TYPE":"U","NORAD_CAT_ID":43632,"ELEMENT_SET_NO":999,"REV_AT_EPOCH":2740,"BSTAR":0,"MEAN_MOTION_DOT":0,"MEAN_MOTION_DDOT":0},{"OBJECT_NAME":"HORIZONS-3E","OBJECT_ID":"2018-074B","EPOCH":"2026-03-05T17:29:38.583456","MEAN_MOTION":1.00271607,"ECCENTRICITY":5.57e-5,"INCLINATION":0.0208,"RA_OF_ASC_NODE":270.4294,"ARG_OF_PERICENTER":65.2436,"MEAN_ANOMALY":259.1632,"EPHEMERIS_TYPE":0,"CLASSIFICATION_TYPE":"U","NORAD_CAT_ID":43633,"ELEMENT_SET_NO":999,"REV_AT_EPOCH":2730,"BSTAR":0,"MEAN_MOTION_DOT":-3.8e-7,"MEAN_MOTION_DDOT":0},{"OBJECT_NAME":"AT&T T-16","OBJECT_ID":"2019-034A","EPOCH":"2026-03-05T15:13:42.089952","MEAN_MOTION":1.00272659,"ECCENTRICITY":9.51e-5,"INCLINATION":0.023,"RA_OF_ASC_NODE":102.0482,"ARG_OF_PERICENTER":67.1555,"MEAN_ANOMALY":121.7122,"EPHEMERIS_TYPE":0,"CLASSIFICATION_TYPE":"U","NORAD_CAT_ID":44333,"ELEMENT_SET_NO":999,"REV_AT_EPOCH":2459,"BSTAR":0,"MEAN_MOTION_DOT":-1.22e-6,"MEAN_MOTION_DDOT":0},{"OBJECT_NAME":"INTELSAT 39 (IS-39)","OBJECT_ID":"2019-049B","EPOCH":"2026-03-05T10:52:07.171392","MEAN_MOTION":1.00269682,"ECCENTRICITY":7.21e-5,"INCLINATION":0.0244,"RA_OF_ASC_NODE":149.9814,"ARG_OF_PERICENTER":354.7122,"MEAN_ANOMALY":243.4677,"EPHEMERIS_TYPE":0,"CLASSIFICATION_TYPE":"U","NORAD_CAT_ID":44476,"ELEMENT_SET_NO":999,"REV_AT_EPOCH":2408,"BSTAR":0,"MEAN_MOTION_DOT":0,"MEAN_MOTION_DDOT":0},{"OBJECT_NAME":"GALAXY 30 (G-30)","OBJECT_ID":"2020-056C","EPOCH":"2026-03-05T15:06:50.247936","MEAN_MOTION":1.00271232,"ECCENTRICITY":0.0002069,"INCLINATION":0.0225,"RA_OF_ASC_NODE":160.3254,"ARG_OF_PERICENTER":192.9294,"MEAN_ANOMALY":271.8285,"EPHEMERIS_TYPE":0,"CLASSIFICATION_TYPE":"U","NORAD_CAT_ID":46114,"ELEMENT_SET_NO":999,"REV_AT_EPOCH":2025,"BSTAR":0,"MEAN_MOTION_DOT":0,"MEAN_MOTION_DDOT":0}]
